CCSDS_OMM_VERS = 2.0
CREATION_DATE  = 
ORIGINATOR     = 

OBJECT_NAME    = STARLINK-36786
OBJECT_ID      = 2026-034Y
CENTER_NAME    = EARTH
REF_FRAME      = TEME
TIME_SYSTEM    = UTC
MEAN_ELEMENT_THEORY = SGP/SGP4

EPOCH          = 2026-03-02T04:00:01.999584
MEAN_MOTION    = 15.82109553
ECCENTRICITY   = .0000835
INCLINATION    = 53.1510
RA_OF_ASC_NODE = 248.8661
ARG_OF_PERICENTER = 65.2076
MEAN_ANOMALY   = 149.8691

EPHEMERIS_TYPE = 0
CLASSIFICATION_TYPE = U
NORAD_CAT_ID   = 67872
ELEMENT_SET_NO = 999
REV_AT_EPOCH   = 265
BSTAR          = -.76941E-2
MEAN_MOTION_DOT = -.1428801E-1
MEAN_MOTION_DDOT = 0

CCSDS_OMM_VERS = 2.0
CREATION_DATE  = 
ORIGINATOR     = 

OBJECT_NAME    = STARLINK-36783
OBJECT_ID      = 2026-034Z
CENTER_NAME    = EARTH
REF_FRAME      = TEME
TIME_SYSTEM    = UTC
MEAN_ELEMENT_THEORY = SGP/SGP4

EPOCH          = 2026-03-02T04:00:01.999584
MEAN_MOTION    = 15.82329943
ECCENTRICITY   = .0001048
INCLINATION    = 53.1504
RA_OF_ASC_NODE = 248.8571
ARG_OF_PERICENTER = 62.3289
MEAN_ANOMALY   = 156.7407

EPHEMERIS_TYPE = 0
CLASSIFICATION_TYPE = U
NORAD_CAT_ID   = 67873
ELEMENT_SET_NO = 999
REV_AT_EPOCH   = 265
BSTAR          = -.81285E-2
MEAN_MOTION_DOT = -.1513918E-1
MEAN_MOTION_DDOT = 0

CCSDS_OMM_VERS = 2.0
CREATION_DATE  = 
ORIGINATOR     = 

OBJECT_NAME    = STARLINK-36730
OBJECT_ID      = 2026-034AA
CENTER_NAME    = EARTH
REF_FRAME      = TEME
TIME_SYSTEM    = UTC
MEAN_ELEMENT_THEORY = SGP/SGP4

EPOCH          = 2026-03-02T04:00:01.999584
MEAN_MOTION    = 15.82519202
ECCENTRICITY   = .000089
INCLINATION    = 53.1506
RA_OF_ASC_NODE = 248.8494
ARG_OF_PERICENTER = 70.8559
MEAN_ANOMALY   = 152.1701

EPHEMERIS_TYPE = 0
CLASSIFICATION_TYPE = U
NORAD_CAT_ID   = 67874
ELEMENT_SET_NO = 999
REV_AT_EPOCH   = 265
BSTAR          = -.81197E-2
MEAN_MOTION_DOT = -.1524351E-1
MEAN_MOTION_DDOT = 0

CCSDS_OMM_VERS = 2.0
CREATION_DATE  = 
ORIGINATOR     = 

OBJECT_NAME    = STARLINK-36727
OBJECT_ID      = 2026-034AB
CENTER_NAME    = EARTH
REF_FRAME      = TEME
TIME_SYSTEM    = UTC
MEAN_ELEMENT_THEORY = SGP/SGP4

EPOCH          = 2026-03-02T04:00:01.999584
MEAN_MOTION    = 15.82667303
ECCENTRICITY   = .0001039
INCLINATION    = 53.1503
RA_OF_ASC_NODE = 248.8410
ARG_OF_PERICENTER = 72.4539
MEAN_ANOMALY   = 154.5041

EPHEMERIS_TYPE = 0
CLASSIFICATION_TYPE = U
NORAD_CAT_ID   = 67875
ELEMENT_SET_NO = 999
REV_AT_EPOCH   = 265
BSTAR          = -.75987E-2
MEAN_MOTION_DOT = -.1446718E-1
MEAN_MOTION_DDOT = 0

CCSDS_OMM_VERS = 2.0
CREATION_DATE  = 
ORIGINATOR     = 

OBJECT_NAME    = STARLINK-36743
OBJECT_ID      = 2026-034AC
CENTER_NAME    = EARTH
REF_FRAME      = TEME
TIME_SYSTEM    = UTC
MEAN_ELEMENT_THEORY = SGP/SGP4

EPOCH          = 2026-03-02T04:00:01.999584
MEAN_MOTION    = 15.82866040
ECCENTRICITY   = .0000923
INCLINATION    = 53.1502
RA_OF_ASC_NODE = 248.8327
ARG_OF_PERICENTER = 68.3389
MEAN_ANOMALY   = 162.5517

EPHEMERIS_TYPE = 0
CLASSIFICATION_TYPE = U
NORAD_CAT_ID   = 67876
ELEMENT_SET_NO = 999
REV_AT_EPOCH   = 265
BSTAR          = -.80525E-2
MEAN_MOTION_DOT = -.1535366E-1
MEAN_MOTION_DDOT = 0

CCSDS_OMM_VERS = 2.0
CREATION_DATE  = 
ORIGINATOR     = 

OBJECT_NAME    = STARLINK-36784
OBJECT_ID      = 2026-034AD
CENTER_NAME    = EARTH
REF_FRAME      = TEME
TIME_SYSTEM    = UTC
MEAN_ELEMENT_THEORY = SGP/SGP4

EPOCH          = 2026-03-02T04:00:01.999584
MEAN_MOTION    = 15.83040374
ECCENTRICITY   = .0001075
INCLINATION    = 53.1504
RA_OF_ASC_NODE = 248.8247
ARG_OF_PERICENTER = 73.6620
MEAN_ANOMALY   = 161.1018

EPHEMERIS_TYPE = 0
CLASSIFICATION_TYPE = U
NORAD_CAT_ID   = 67877
ELEMENT_SET_NO = 999
REV_AT_EPOCH   = 265
BSTAR          = -.7996E-2
MEAN_MOTION_DOT = -.1537192E-1
MEAN_MOTION_DDOT = 0

CCSDS_OMM_VERS = 2.0
CREATION_DATE  = 
ORIGINATOR     = 

OBJECT_NAME    = STARLINK-36689
OBJECT_ID      = 2026-034AE
CENTER_NAME    = EARTH
REF_FRAME      = TEME
TIME_SYSTEM    = UTC
MEAN_ELEMENT_THEORY = SGP/SGP4

EPOCH          = 2026-03-02T04:00:01.999584
MEAN_MOTION    = 15.83216831
ECCENTRICITY   = .000086
INCLINATION    = 53.1502
RA_OF_ASC_NODE = 248.8171
ARG_OF_PERICENTER = 74.8619
MEAN_ANOMALY   = 163.7078

EPHEMERIS_TYPE = 0
CLASSIFICATION_TYPE = U
NORAD_CAT_ID   = 67878
ELEMENT_SET_NO = 999
REV_AT_EPOCH   = 265
BSTAR          = -.78138E-2
MEAN_MOTION_DOT = -.1517404E-1
MEAN_MOTION_DDOT = 0

CCSDS_OMM_VERS = 2.0
CREATION_DATE  = 
ORIGINATOR     = 

OBJECT_NAME    = STARLINK-36818
OBJECT_ID      = 2026-035A
CENTER_NAME    = EARTH
REF_FRAME      = TEME
TIME_SYSTEM    = UTC
MEAN_ELEMENT_THEORY = SGP/SGP4

EPOCH          = 2026-03-02T04:00:01.999584
MEAN_MOTION    = 16.02655408
ECCENTRICITY   = .000118
INCLINATION    = 97.2802
RA_OF_ASC_NODE = 352.8885
ARG_OF_PERICENTER = 114.8316
MEAN_ANOMALY   = 84.3142

EPHEMERIS_TYPE = 0
CLASSIFICATION_TYPE = U
NORAD_CAT_ID   = 67879
ELEMENT_SET_NO = 999
REV_AT_EPOCH   = 254
BSTAR          = -.13187E-2
MEAN_MOTION_DOT = -.777471E-2
MEAN_MOTION_DDOT = .21179E-3

CCSDS_OMM_VERS = 2.0
CREATION_DATE  = 
ORIGINATOR     = 

OBJECT_NAME    = STARLINK-36821
OBJECT_ID      = 2026-035B
CENTER_NAME    = EARTH
REF_FRAME      = TEME
TIME_SYSTEM    = UTC
MEAN_ELEMENT_THEORY = SGP/SGP4

EPOCH          = 2026-03-02T04:00:01.999584
MEAN_MOTION    = 16.02839911
ECCENTRICITY   = .0001015
INCLINATION    = 97.2798
RA_OF_ASC_NODE = 352.8907
ARG_OF_PERICENTER = 116.2476
MEAN_ANOMALY   = 87.7735

EPHEMERIS_TYPE = 0
CLASSIFICATION_TYPE = U
NORAD_CAT_ID   = 67880
ELEMENT_SET_NO = 999
REV_AT_EPOCH   = 254
BSTAR          = -.12867E-2
MEAN_MOTION_DOT = -.766868E-2
MEAN_MOTION_DDOT = .2069E-3

CCSDS_OMM_VERS = 2.0
CREATION_DATE  = 
ORIGINATOR     = 

OBJECT_NAME    = STARLINK-36808
OBJECT_ID      = 2026-035C
CENTER_NAME    = EARTH
REF_FRAME      = TEME
TIME_SYSTEM    = UTC
MEAN_ELEMENT_THEORY = SGP/SGP4

EPOCH          = 2026-03-02T04:00:01.999584
MEAN_MOTION    = 16.02725117
ECCENTRICITY   = .0001071
INCLINATION    = 97.2799
RA_OF_ASC_NODE = 352.8894
ARG_OF_PERICENTER = 110.6367
MEAN_ANOMALY   = 90.3202

EPHEMERIS_TYPE = 0
CLASSIFICATION_TYPE = U
NORAD_CAT_ID   = 67881
ELEMENT_SET_NO = 999
REV_AT_EPOCH   = 254
BSTAR          = -.13095E-2
MEAN_MOTION_DOT = -.775182E-2
MEAN_MOTION_DDOT = .21081E-3

CCSDS_OMM_VERS = 2.0
CREATION_DATE  = 
ORIGINATOR     = 

OBJECT_NAME    = STARLINK-36817
OBJECT_ID      = 2026-035D
CENTER_NAME    = EARTH
REF_FRAME      = TEME
TIME_SYSTEM    = UTC
MEAN_ELEMENT_THEORY = SGP/SGP4

EPOCH          = 2026-03-02T04:00:01.999584
MEAN_MOTION    = 16.03061315
ECCENTRICITY   = .0001016
INCLINATION    = 97.2793
RA_OF_ASC_NODE = 352.8928
ARG_OF_PERICENTER = 101.3912
MEAN_ANOMALY   = 108.5883

EPHEMERIS_TYPE = 0
CLASSIFICATION_TYPE = U
NORAD_CAT_ID   = 67882
ELEMENT_SET_NO = 999
REV_AT_EPOCH   = 254
BSTAR          = -.1281E-2
MEAN_MOTION_DOT = -.77346E-2
MEAN_MOTION_DDOT = .21078E-3

CCSDS_OMM_VERS = 2.0
CREATION_DATE  = 
ORIGINATOR     = 

OBJECT_NAME    = STARLINK-36856
OBJECT_ID      = 2026-035E
CENTER_NAME    = EARTH
REF_FRAME      = TEME
TIME_SYSTEM    = UTC
MEAN_ELEMENT_THEORY = SGP/SGP4

EPOCH          = 2026-03-02T04:00:01.999584
MEAN_MOTION    = 16.02961234
ECCENTRICITY   = .0001091
INCLINATION    = 97.2797
RA_OF_ASC_NODE = 352.8918
ARG_OF_PERICENTER = 104.3461
MEAN_ANOMALY   = 102.8665

EPHEMERIS_TYPE = 0
CLASSIFICATION_TYPE = U
NORAD_CAT_ID   = 67883
ELEMENT_SET_NO = 999
REV_AT_EPOCH   = 254
BSTAR          = -.12992E-2
MEAN_MOTION_DOT = -.779765E-2
MEAN_MOTION_DDOT = .21373E-3

