STARLINK-36786          
1 67872U 26034Y   26061.16668981 -.01428801  00000+0 -76941-2 0  9999
2 67872  53.1510 248.8661 0000835  65.2076 149.8691 15.82109553  2654
STARLINK-36783          
1 67873U 26034Z   26061.16668981 -.01513918  00000+0 -81285-2 0  9991
2 67873  53.1504 248.8571 0001048  62.3289 156.7407 15.82329943  2658
STARLINK-36730          
1 67874U 26034AA  26061.16668981 -.01524351  00000+0 -81197-2 0  9997
2 67874  53.1506 248.8494 0000890  70.8559 152.1701 15.82519202  2659
STARLINK-36727          
1 67875U 26034AB  26061.16668981 -.01446718  00000+0 -75987-2 0  9998
2 67875  53.1503 248.8410 0001039  72.4539 154.5041 15.82667303  2656
STARLINK-36743          
1 67876U 26034AC  26061.16668981 -.01535366  00000+0 -80525-2 0  9991
2 67876  53.1502 248.8327 0000923  68.3389 162.5517 15.82866040  2657
STARLINK-36784          
1 67877U 26034AD  26061.16668981 -.01537192  00000+0 -79960-2 0  9992
2 67877  53.1504 248.8247 0001075  73.6620 161.1018 15.83040374  2653
STARLINK-36689          
1 67878U 26034AE  26061.16668981 -.01517404  00000+0 -78138-2 0  9993
2 67878  53.1502 248.8171 0000860  74.8619 163.7078 15.83216831  2657
STARLINK-36818          
1 67879U 26035A   26061.16668981 -.00777471  21179-3 -13187-2 0  9993
2 67879  97.2802 352.8885 0001180 114.8316  84.3142 16.02655408  2540
STARLINK-36821          
1 67880U 26035B   26061.16668981 -.00766868  20690-3 -12867-2 0  9994
2 67880  97.2798 352.8907 0001015 116.2476  87.7735 16.02839911  2549
STARLINK-36808          
1 67881U 26035C   26061.16668981 -.00775182  21081-3 -13095-2 0  9993
2 67881  97.2799 352.8894 0001071 110.6367  90.3202 16.02725117  2546
STARLINK-36817          
1 67882U 26035D   26061.16668981 -.00773460  21078-3 -12810-2 0  9991
2 67882  97.2793 352.8928 0001016 101.3912 108.5883 16.03061315  2542
STARLINK-36856          
1 67883U 26035E   26061.16668981 -.00779765  21373-3 -12992-2 0  9995
2 67883  97.2797 352.8918 0001091 104.3461 102.8665 16.02961234  2544
